CCSDS_OMM_VERS = 2.0
CREATION_DATE  = 
ORIGINATOR     = 

OBJECT_NAME    = STARLINK-36383
OBJECT_ID      = 2026-036U
CENTER_NAME    = EARTH
REF_FRAME      = TEME
TIME_SYSTEM    = UTC
MEAN_ELEMENT_THEORY = SGP/SGP4

EPOCH          = 2026-03-07T06:00:00.999648
MEAN_MOTION    = 15.81978776
ECCENTRICITY   = .00017774
INCLINATION    = 42.9995
RA_OF_ASC_NODE = 264.5664
ARG_OF_PERICENTER = 259.5466
MEAN_ANOMALY   = 179.5516

EPHEMERIS_TYPE = 0
CLASSIFICATION_TYPE = U
NORAD_CAT_ID   = 67922
ELEMENT_SET_NO = 999
REV_AT_EPOCH   = 325
BSTAR          = -.30938233E-3
MEAN_MOTION_DOT = -.6508E-3
MEAN_MOTION_DDOT = 0

CCSDS_OMM_VERS = 2.0
CREATION_DATE  = 
ORIGINATOR     = 

OBJECT_NAME    = STARLINK-36406
OBJECT_ID      = 2026-036V
CENTER_NAME    = EARTH
REF_FRAME      = TEME
TIME_SYSTEM    = UTC
MEAN_ELEMENT_THEORY = SGP/SGP4

EPOCH          = 2026-03-07T06:00:00.999648
MEAN_MOTION    = 15.82061128
ECCENTRICITY   = .00024812
INCLINATION    = 42.9996
RA_OF_ASC_NODE = 264.5553
ARG_OF_PERICENTER = 276.9054
MEAN_ANOMALY   = 166.3904

EPHEMERIS_TYPE = 0
CLASSIFICATION_TYPE = U
NORAD_CAT_ID   = 67923
ELEMENT_SET_NO = 999
REV_AT_EPOCH   = 325
BSTAR          = -.59467943E-3
MEAN_MOTION_DOT = -.124259E-2
MEAN_MOTION_DDOT = 0

CCSDS_OMM_VERS = 2.0
CREATION_DATE  = 
ORIGINATOR     = 

OBJECT_NAME    = STARLINK-36714
OBJECT_ID      = 2026-036W
CENTER_NAME    = EARTH
REF_FRAME      = TEME
TIME_SYSTEM    = UTC
MEAN_ELEMENT_THEORY = SGP/SGP4

EPOCH          = 2026-03-07T06:00:00.999648
MEAN_MOTION    = 15.82017282
ECCENTRICITY   = .00021944
INCLINATION    = 42.9995
RA_OF_ASC_NODE = 264.5453
ARG_OF_PERICENTER = 263.4299
MEAN_ANOMALY   = 184.1415

EPHEMERIS_TYPE = 0
CLASSIFICATION_TYPE = U
NORAD_CAT_ID   = 67924
ELEMENT_SET_NO = 999
REV_AT_EPOCH   = 325
BSTAR          = -.23320979E-3
MEAN_MOTION_DOT = -.49369E-3
MEAN_MOTION_DDOT = 0

CCSDS_OMM_VERS = 2.0
CREATION_DATE  = 
ORIGINATOR     = 

OBJECT_NAME    = STARLINK-36726
OBJECT_ID      = 2026-036X
CENTER_NAME    = EARTH
REF_FRAME      = TEME
TIME_SYSTEM    = UTC
MEAN_ELEMENT_THEORY = SGP/SGP4

EPOCH          = 2026-03-07T06:00:00.999648
MEAN_MOTION    = 15.82026780
ECCENTRICITY   = .0001999
INCLINATION    = 42.9996
RA_OF_ASC_NODE = 264.5344
ARG_OF_PERICENTER = 263.5343
MEAN_ANOMALY   = 188.2819

EPHEMERIS_TYPE = 0
CLASSIFICATION_TYPE = U
NORAD_CAT_ID   = 67925
ELEMENT_SET_NO = 999
REV_AT_EPOCH   = 325
BSTAR          = -.18423042E-3
MEAN_MOTION_DOT = -.39173E-3
MEAN_MOTION_DDOT = 0

CCSDS_OMM_VERS = 2.0
CREATION_DATE  = 
ORIGINATOR     = 

OBJECT_NAME    = STARLINK-36758
OBJECT_ID      = 2026-036Y
CENTER_NAME    = EARTH
REF_FRAME      = TEME
TIME_SYSTEM    = UTC
MEAN_ELEMENT_THEORY = SGP/SGP4

EPOCH          = 2026-03-07T06:00:00.999648
MEAN_MOTION    = 15.82009840
ECCENTRICITY   = .0001632
INCLINATION    = 42.9997
RA_OF_ASC_NODE = 264.5235
ARG_OF_PERICENTER = 296.5294
MEAN_ANOMALY   = 159.5634

EPHEMERIS_TYPE = 0
CLASSIFICATION_TYPE = U
NORAD_CAT_ID   = 67926
ELEMENT_SET_NO = 999
REV_AT_EPOCH   = 325
BSTAR          = -.68361419E-4
MEAN_MOTION_DOT = -.14899E-3
MEAN_MOTION_DDOT = 0

CCSDS_OMM_VERS = 2.0
CREATION_DATE  = 
ORIGINATOR     = 

OBJECT_NAME    = STARLINK-36728
OBJECT_ID      = 2026-036Z
CENTER_NAME    = EARTH
REF_FRAME      = TEME
TIME_SYSTEM    = UTC
MEAN_ELEMENT_THEORY = SGP/SGP4

EPOCH          = 2026-03-07T06:00:00.999648
MEAN_MOTION    = 15.82042205
ECCENTRICITY   = .00022267
INCLINATION    = 42.9998
RA_OF_ASC_NODE = 264.5014
ARG_OF_PERICENTER = 266.6614
MEAN_ANOMALY   = 197.9644

EPHEMERIS_TYPE = 0
CLASSIFICATION_TYPE = U
NORAD_CAT_ID   = 67927
ELEMENT_SET_NO = 999
REV_AT_EPOCH   = 325
BSTAR          = -.26366348E-3
MEAN_MOTION_DOT = -.5577E-3
MEAN_MOTION_DDOT = 0

CCSDS_OMM_VERS = 2.0
CREATION_DATE  = 
ORIGINATOR     = 

OBJECT_NAME    = STARLINK-36771
OBJECT_ID      = 2026-036AA
CENTER_NAME    = EARTH
REF_FRAME      = TEME
TIME_SYSTEM    = UTC
MEAN_ELEMENT_THEORY = SGP/SGP4

EPOCH          = 2026-03-07T06:00:00.999648
MEAN_MOTION    = 15.82010116
ECCENTRICITY   = .00021147
INCLINATION    = 42.9997
RA_OF_ASC_NODE = 264.5119
ARG_OF_PERICENTER = 256.1182
MEAN_ANOMALY   = 204.2495

EPHEMERIS_TYPE = 0
CLASSIFICATION_TYPE = U
NORAD_CAT_ID   = 67928
ELEMENT_SET_NO = 999
REV_AT_EPOCH   = 325
BSTAR          = -.78634552E-4
MEAN_MOTION_DOT = -.17056E-3
MEAN_MOTION_DDOT = 0

CCSDS_OMM_VERS = 2.0
CREATION_DATE  = 
ORIGINATOR     = 

OBJECT_NAME    = STARLINK-36809
OBJECT_ID      = 2026-036AB
CENTER_NAME    = EARTH
REF_FRAME      = TEME
TIME_SYSTEM    = UTC
MEAN_ELEMENT_THEORY = SGP/SGP4

EPOCH          = 2026-03-07T06:00:00.999648
MEAN_MOTION    = 15.82008902
ECCENTRICITY   = .00024194
INCLINATION    = 42.9995
RA_OF_ASC_NODE = 264.4904
ARG_OF_PERICENTER = 243.5947
MEAN_ANOMALY   = 225.3338

EPHEMERIS_TYPE = 0
CLASSIFICATION_TYPE = U
NORAD_CAT_ID   = 67929
ELEMENT_SET_NO = 999
REV_AT_EPOCH   = 325
BSTAR          = -.13065035E-3
MEAN_MOTION_DOT = -.27951E-3
MEAN_MOTION_DDOT = 0

CCSDS_OMM_VERS = 2.0
CREATION_DATE  = 
ORIGINATOR     = 

OBJECT_NAME    = STARLINK-36865
OBJECT_ID      = 2026-036AC
CENTER_NAME    = EARTH
REF_FRAME      = TEME
TIME_SYSTEM    = UTC
MEAN_ELEMENT_THEORY = SGP/SGP4

EPOCH          = 2026-03-07T06:00:00.999648
MEAN_MOTION    = 15.82029175
ECCENTRICITY   = .00021732
INCLINATION    = 42.9997
RA_OF_ASC_NODE = 264.4689
ARG_OF_PERICENTER = 245.6970
MEAN_ANOMALY   = 231.7666

EPHEMERIS_TYPE = 0
CLASSIFICATION_TYPE = U
NORAD_CAT_ID   = 67930
ELEMENT_SET_NO = 999
REV_AT_EPOCH   = 325
BSTAR          = -.28419249E-3
MEAN_MOTION_DOT = -.60005E-3
MEAN_MOTION_DDOT = 0

CCSDS_OMM_VERS = 2.0
CREATION_DATE  = 
ORIGINATOR     = 

OBJECT_NAME    = STARLINK-36781
OBJECT_ID      = 2026-036AD
CENTER_NAME    = EARTH
REF_FRAME      = TEME
TIME_SYSTEM    = UTC
MEAN_ELEMENT_THEORY = SGP/SGP4

EPOCH          = 2026-03-07T06:00:00.999648
MEAN_MOTION    = 15.82016823
ECCENTRICITY   = .00019371
INCLINATION    = 42.9996
RA_OF_ASC_NODE = 264.4799
ARG_OF_PERICENTER = 273.5072
MEAN_ANOMALY   = 199.7016

EPHEMERIS_TYPE = 0
CLASSIFICATION_TYPE = U
NORAD_CAT_ID   = 67931
ELEMENT_SET_NO = 999
REV_AT_EPOCH   = 325
BSTAR          = -.27380434E-3
MEAN_MOTION_DOT = -.57809E-3
MEAN_MOTION_DDOT = 0

CCSDS_OMM_VERS = 2.0
CREATION_DATE  = 
ORIGINATOR     = 

OBJECT_NAME    = STARLINK-36301
OBJECT_ID      = 2026-037A
CENTER_NAME    = EARTH
REF_FRAME      = TEME
TIME_SYSTEM    = UTC
MEAN_ELEMENT_THEORY = SGP/SGP4

EPOCH          = 2026-03-07T06:00:00.999648
MEAN_MOTION    = 15.86932755
ECCENTRICITY   = .00015284
INCLINATION    = 42.9994
RA_OF_ASC_NODE = 213.5616
ARG_OF_PERICENTER = 271.8343
MEAN_ANOMALY   = 114.7491

EPHEMERIS_TYPE = 0
CLASSIFICATION_TYPE = U
NORAD_CAT_ID   = 67932
ELEMENT_SET_NO = 999
REV_AT_EPOCH   = 271
BSTAR          = -.63218628E-2
MEAN_MOTION_DOT = -.1492556E-1
MEAN_MOTION_DDOT = 0

CCSDS_OMM_VERS = 2.0
CREATION_DATE  = 
ORIGINATOR     = 

OBJECT_NAME    = STARLINK-36852
OBJECT_ID      = 2026-037B
CENTER_NAME    = EARTH
REF_FRAME      = TEME
TIME_SYSTEM    = UTC
MEAN_ELEMENT_THEORY = SGP/SGP4

EPOCH          = 2026-03-07T06:00:00.999648
MEAN_MOTION    = 15.87110870
ECCENTRICITY   = .0001525
INCLINATION    = 42.9997
RA_OF_ASC_NODE = 213.5535
ARG_OF_PERICENTER = 273.5533
MEAN_ANOMALY   = 116.2434

EPHEMERIS_TYPE = 0
CLASSIFICATION_TYPE = U
NORAD_CAT_ID   = 67933
ELEMENT_SET_NO = 999
REV_AT_EPOCH   = 280
BSTAR          = -.62223452E-2
MEAN_MOTION_DOT = -.1453537E-1
MEAN_MOTION_DDOT = 0

